      2.10          N: GNSS NAV DATA                        RINEX VERSION / TYPE
fic2rin                                 11/02/2022 00:18:03 PGM / RUN BY / DATE
                                                            END OF HEADER
2  22 11  1  1 59 44.0 -.639908015728D-03  .170530256582D-11  .000000000000D+00
     .100000000000D+02  .360312500000D+02  .425732019162D-08 -.214148081581D+01
     .208616256714D-05  .200886002276D-01  .368617475033D-05  .515489826965D+04
     .179984000000D+06  .247731804848D-06 -.353202084170D+00  .301748514175D-06
     .966954461580D+00  .310156250000D+03 -.138785118978D+01 -.785818446778D-08
     .303584074067D-10  .100000000000D+01  .223400000000D+04  .000000000000D+00
     .240000000000D+01  .000000000000D+00 -.176951289177D-07  .100000000000D+02
     .172800000000D+06  .400000000000D+01
15 22 11  1 10  0  0.0 -.160965137184D-04  .318323145621D-11  .000000000000D+00
     .530000000000D+02 -.637500000000D+02  .504235289138D-08 -.213084279006D+01
    -.332482159138D-05  .146995937685D-01  .907108187675D-05  .515363523102D+04
     .208800000000D+06  .176951289177D-06  .168674603026D+01 -.838190317154D-07
     .930816505364D+00  .184468750000D+03  .115430308442D+01 -.799676166865D-08
     .181436128972D-09  .100000000000D+01  .223400000000D+04  .000000000000D+00
     .240000000000D+01  .000000000000D+00 -.107102096081D-07  .530000000000D+02
     .201600000000D+06  .400000000000D+01
13 22 11  1 10  0  0.0  .416665803641D-03  .693489710102D-11  .000000000000D+00
     .470000000000D+02 -.394375000000D+02  .425589156068D-08 -.163976512858D+01
    -.206753611565D-05  .662424368784D-02  .100787729025D-04  .515367368698D+04
     .208800000000D+06  .156462192535D-06  .195671868480D+01 -.577419996262D-07
     .968890288410D+00  .189906250000D+03  .949520130982D+00 -.771746432051D-08
     .118933525487D-09  .100000000000D+01  .223400000000D+04  .000000000000D+00
     .240000000000D+01  .000000000000D+00 -.116415321827D-07  .470000000000D+02
     .201600000000D+06  .400000000000D+01
8  22 11  1 10  0  0.0 -.916747376323D-04 -.181898940355D-11  .000000000000D+00
     .145000000000D+03  .645625000000D+02  .430946522081D-08 -.113235446658D+01
     .318512320518D-05  .770334887784D-02  .876560807228D-05  .515361434174D+04
     .208800000000D+06  .596046447754D-07 -.134492684290D+01 -.184401869774D-06
     .961332460087D+00  .207687500000D+03  .163388963703D+00 -.797247494272D-08
    -.100361323309D-09  .100000000000D+01  .223400000000D+04  .000000000000D+00
     .240000000000D+01  .000000000000D+00  .512227416039D-08  .145000000000D+03
     .201600000000D+06  .400000000000D+01
4  22 11  1 10  0  0.0 -.940109603107D-04  .648014975013D-11  .000000000000D+00
     .970000000000D+02 -.616250000000D+02  .439625455022D-08 -.149150184690D+01
    -.325590372086D-05  .212614436168D-02  .978447496891D-05  .515374088097D+04
     .208800000000D+06  .000000000000D+00  .185473799255D+01 -.931322574615D-08
     .961622171995D+00  .191750000000D+03 -.311589958136D+01 -.781675417062D-08
     .138220043134D-09  .100000000000D+01  .223400000000D+04  .000000000000D+00
     .240000000000D+01  .000000000000D+00 -.465661287308D-08  .970000000000D+02
     .201600000000D+06  .400000000000D+01
7  22 11  1 10  0  0.0  .292564742267D-03 -.432009983342D-11  .000000000000D+00
     .860000000000D+02  .207187500000D+02  .480520015587D-08  .226259995828D+01
     .817701220512D-06  .164383238880D-01  .833347439766D-05  .515362004662D+04
     .208800000000D+06 -.109896063805D-06  .287135047248D+01 -.368803739548D-06
     .950878933181D+00  .212718750000D+03 -.223903885216D+01 -.789497171440D-08
     .197151069276D-09  .100000000000D+01  .223400000000D+04  .000000000000D+00
     .240000000000D+01  .000000000000D+00 -.111758708954D-07  .860000000000D+02
     .201600000000D+06  .400000000000D+01
11 22 11  1 10  0  0.0 -.332579948008D-04 -.522959453519D-11  .000000000000D+00
     .211000000000D+03  .208125000000D+02  .452518849226D-08 -.162860246238D+01
     .118277966976D-05  .793865183368D-03  .420771539211D-05  .515366374016D+04
     .208800000000D+06  .726431608200D-07 -.221203944089D+00  .204890966415D-07
     .964419104590D+00  .299593750000D+03 -.296367854012D+01 -.826462996930D-08
     .166792661870D-09  .100000000000D+01  .223400000000D+04  .000000000000D+00
     .240000000000D+01  .000000000000D+00 -.884756445885D-08  .467000000000D+03
     .201600000000D+06  .400000000000D+01
10 22 11  1 10  0  0.0 -.100028701127D-04 -.170530256582D-11  .000000000000D+00
     .128000000000D+03 -.874687500000D+02  .440839791318D-08  .883152448742D+00
    -.439584255219D-05  .812171399593D-02  .525824725628D-05  .515368794060D+04
     .208800000000D+06  .558793544769D-08  .770378073339D+00  .108033418655D-06
     .975720952820D+00  .286468750000D+03 -.250534524235D+01 -.827963059413D-08
    -.169649923743D-09  .100000000000D+01  .223400000000D+04  .000000000000D+00
     .485000000000D+01  .000000000000D+00  .232830643654D-08  .128000000000D+03
     .201600000000D+06  .400000000000D+01
27 22 11  1 10  0  0.0  .187347177416D-03 -.761701812735D-11  .000000000000D+00
     .330000000000D+02  .728437500000D+02  .416874507354D-08 -.114027371906D+01
     .379607081413D-05  .107131327968D-01  .869669020176D-05  .515366377640D+04
     .208800000000D+06  .264495611191D-06 -.132332506685D+01  .204890966415D-07
     .970146393760D+00  .214437500000D+03  .684003621462D+00 -.791068665471D-08
    -.130005415247D-09  .100000000000D+01  .223400000000D+04  .000000000000D+00
     .240000000000D+01  .000000000000D+00  .139698386192D-08  .330000000000D+02
     .201600000000D+06  .400000000000D+01
32 22 11  1 10  0  0.0 -.281826127321D-03 -.122781784739D-10  .000000000000D+00
     .750000000000D+02 -.690937500000D+02  .460447750926D-08 -.424291137017D+00
    -.361166894436D-05  .618171889801D-02  .102929770947D-04  .515366596413D+04
     .208800000000D+06 -.260770320892D-07  .181198626708D+01  .121071934700D-06
     .958482915106D+00  .180718750000D+03 -.229855261251D+01 -.807140763510D-08
     .957182727646D-10  .100000000000D+01  .223400000000D+04  .000000000000D+00
     .240000000000D+01  .000000000000D+00  .465661287308D-09  .750000000000D+02
     .201600000000D+06  .400000000000D+01
26 22 11  1 10  0  0.0  .234427861869D-03  .125055521494D-11  .000000000000D+00
     .400000000000D+02  .299687500000D+02  .519093050881D-08  .631467237179D+00
     .165961682796D-05  .737674196716D-02  .664219260216D-05  .515357920456D+04
     .208800000000D+06  .391155481339D-07 -.242980433229D+01  .139698386192D-06
     .936004052372D+00  .236156250000D+03  .387898524799D+00 -.839249243814D-08
    -.351443210449D-09  .100000000000D+01  .223400000000D+04  .000000000000D+00
     .240000000000D+01  .000000000000D+00  .698491930962D-08  .400000000000D+02
     .201600000000D+06  .400000000000D+01
16 22 11  1 10  0  0.0 -.526777468622D-03 -.227373675443D-12  .000000000000D+00
     .117000000000D+03  .283125000000D+02  .448768693017D-08 -.250894984177D+00
     .163353979588D-05  .129337882390D-01  .730715692043D-05  .515372959709D+04
     .208800000000D+06  .707805156708D-07 -.227967415356D+01  .132247805595D-06
     .967346247134D+00  .241562500000D+03  .735449719233D+00 -.817819779762D-08
    -.333585323739D-09  .100000000000D+01  .223400000000D+04  .000000000000D+00
     .340000000000D+01  .000000000000D+00 -.102445483208D-07  .117000000000D+03
     .201600000000D+06  .400000000000D+01
30 22 11  1 10  0  0.0 -.537023879588D-03  .227373675443D-12  .000000000000D+00
     .970000000000D+02  .225937500000D+02  .522807491316D-08  .214992939739D+01
     .111758708954D-05  .594136409927D-02  .800937414169D-05  .515368604279D+04
     .208800000000D+06 -.175088644028D-06  .288059766690D+01  .931322574615D-08
     .936015098866D+00  .213968750000D+03 -.266294733662D+01 -.828248785601D-08
     .133576992589D-09  .100000000000D+01  .223400000000D+04  .000000000000D+00
     .340000000000D+01  .000000000000D+00  .372529029846D-08  .970000000000D+02
     .201600000000D+06  .400000000000D+01
21 22 11  1 10  0  0.0  .156954396516D-03 -.682121026330D-12  .000000000000D+00
     .830000000000D+02  .480937500000D+02  .470126725522D-08 -.115689118253D+01
     .239163637161D-05  .244274224387D-01  .543147325516D-05  .515368696976D+04
     .208800000000D+06 -.379979610443D-06 -.356821331795D+00 -.221654772758D-06
     .961269728697D+00  .284250000000D+03 -.875616044854D+00 -.862143054576D-08
     .469305262734D-09  .100000000000D+01  .223400000000D+04  .000000000000D+00
     .240000000000D+01  .000000000000D+00 -.102445483208D-07  .830000000000D+02
     .201600000000D+06  .400000000000D+01
19 22 11  1 10  0  0.0  .231504905969D-03  .511590769747D-11  .000000000000D+00
     .620000000000D+02  .550312500000D+02  .412445751450D-08  .974699252296D+00
     .281259417534D-05  .903695216402D-02  .789202749729D-05  .515373391342D+04
     .208800000000D+06  .800937414169D-07 -.121435271752D+01 -.189989805222D-06
     .975701598414D+00  .235125000000D+03  .220441585440D+01 -.794497379719D-08
    -.375015620906D-10  .100000000000D+01  .223400000000D+04  .000000000000D+00
     .340000000000D+01  .000000000000D+00 -.153668224812D-07  .620000000000D+02
     .201600000000D+06  .400000000000D+01
20 22 11  1 10  0  0.0  .473689753562D-03 -.306954461848D-11  .000000000000D+00
     .520000000000D+02 -.669375000000D+02  .498627912711D-08 -.233371727178D+01
    -.343471765518D-05  .477521622088D-02  .429898500443D-05  .515368320274D+04
     .208800000000D+06 -.726431608200D-07  .610509367446D+00 -.176951289177D-06
     .945483951705D+00  .285656250000D+03 -.305229484666D+01 -.842749389609D-08
     .142863093678D-11  .100000000000D+01  .223400000000D+04  .000000000000D+00
     .340000000000D+01  .000000000000D+00 -.838190317154D-08  .520000000000D+02
     .201600000000D+06  .400000000000D+01
